NORAD_CAT_ID,OBJECT_NAME,OBJECT_TYPE,EPOCH,MEAN_MOTION,ECCENTRICITY,INCLINATION,RA_OF_ASC_NODE,ARG_OF_PERICENTER,MEAN_ANOMALY,BSTAR,MEAN_MOTION_DOT,MEAN_MOTION_DDOT,TLE_LINE0,TLE_LINE1,TLE_LINE2,SEMIMAJOR_AXIS,PERIOD,APOGEE,PERIGEE,DECAYED
56491.0,STARLINK-5842,PAYLOAD,2024-04-08 07:38:21,14.98343959,0.0002579,69.9995,70.3409,266.9084,93.178,-5.0592e-05,-6.97e-06,0.0,0 STARLINK-5842,1 56491U 23064AV  24099.31830536 -.00000697  00000-0 -50592-4 0  9992,2 56491  69.9995  70.3409 0002579 266.9084  93.1780 14.98343959 51688,6950.15,96.106,573.807,570.222,0.0
56491.0,STARLINK-5842,PAYLOAD,2024-04-08 23:39:42,14.98330913,0.00025,70.0001,68.6577,266.3209,93.7664,4.2676e-05,4.16e-06,0.0,0 STARLINK-5842,1 56491U 23064AV  24099.98590765  .00000416  00000-0  42676-4 0  9993,2 56491  70.0001  68.6577 0002500 266.3209  93.7664 14.98330913 51427,6950.19,96.107,573.793,570.318,0.0
56491.0,STARLINK-5842,PAYLOAD,2024-04-09 04:28:06,14.98329131,0.0002575,69.9995,68.1527,271.7063,88.3801,1.1358e-05,4.3e-07,0.0,0 STARLINK-5842,1 56491U 23064AV  24100.18618963  .00000043  00000-0  11358-4 0  9998,2 56491  69.9995  68.1527 0002575 271.7063  88.3801 14.98329131 51812,6950.196,96.107,573.85,570.271,0.0
56491.0,STARLINK-5842,PAYLOAD,2024-04-09 07:40:22,14.98333067,0.0002607,69.9997,67.8161,269.6406,90.4454,6.4248e-05,6.74e-06,0.0,0 STARLINK-5842,1 56491U 23064AV  24100.31970533  .00000674  00000-0  64248-4 0  9993,2 56491  69.9997  67.8161 0002607 269.6406  90.4454 14.98333067 51470,6950.183,96.107,573.86,570.236,0.0
56491.0,STARLINK-5842,PAYLOAD,2024-04-09 15:41:02,14.98345167,0.0002146,70.0009,66.9751,273.6643,86.427,-0.00023938,-2.949e-05,0.0,0 STARLINK-5842,1 56491U 23064AV  24100.65350556 -.00002949  00000-0 -23938-3 0  9996,2 56491  70.0009  66.9751 0002146 273.6643  86.4270 14.98345167 51888,6950.146,96.106,573.502,570.519,0.0
56491.0,STARLINK-5842,PAYLOAD,2024-04-10 07:42:23,14.98340315,0.0002288,70.0,65.2919,266.7666,93.3231,-9.7064e-05,-1.251e-05,0.0,0 STARLINK-5842,1 56491U 23064AV  24101.32110288 -.00001251  00000-0 -97064-4 0  9994,2 56491  70.0000  65.2919 0002288 266.7666  93.3231 14.98340315 51628,6950.161,96.106,573.616,570.436,0.0
56491.0,STARLINK-5842,PAYLOAD,2024-04-10 20:31:28,14.98332453,0.0002363,70.0004,63.9454,271.831,88.2578,-7.5679e-05,-9.96e-06,0.0,0 STARLINK-5842,1 56491U 23064AV  24101.85518743 -.00000996  00000-0 -75679-4 0  9993,2 56491  70.0004  63.9454 0002363 271.8310  88.2578 14.98332453 52068,6950.185,96.107,573.693,570.408,0.0
56491.0,STARLINK-5842,PAYLOAD,2024-04-10 22:07:36,14.9833248,0.0002317,70.0003,63.777,272.3556,87.7337,-0.00010114,-1.299e-05,0.0,0 STARLINK-5842,1 56491U 23064AV  24101.92194825 -.00001299  00000-0 -10114-3 0  9991,2 56491  70.0003  63.7770 0002317 272.3556  87.7337 14.98332480 51711,6950.185,96.107,573.661,570.44,0.0
56491.0,STARLINK-5842,PAYLOAD,2024-04-11 14:08:56,14.98331328,0.0002351,70.0005,62.0938,272.5903,87.4987,6.2711e-06,-1.8e-07,0.0,0 STARLINK-5842,1 56491U 23064AV  24102.58954562 -.00000018  00000-0  62711-5 0  9995,2 56491  70.0005  62.0938 0002351 272.5903  87.4987 14.98331328 51816,6950.189,96.107,573.688,570.42,0.0
56491.0,STARLINK-5842,PAYLOAD,2024-04-11 22:09:36,14.98332436,0.0002368,70.0005,61.2522,271.8233,88.2655,1.0584e-05,3.3e-07,0.0,0 STARLINK-5842,1 56491U 23064AV  24102.92334433  .00000033  00000-0  10584-4 0  9998,2 56491  70.0005  61.2522 0002368 271.8233  88.2655 14.98332436 51869,6950.185,96.107,573.696,570.405,0.0
56491.0,STARLINK-5842,PAYLOAD,2024-04-12 04:34:09,14.98333657,0.0002324,70.0005,60.5794,269.184,90.9053,3.4867e-05,3.23e-06,0.0,0 STARLINK-5842,1 56491U 23064AV  24103.19038234  .00000323  00000-0  34867-4 0  9990,2 56491  70.0005  60.5794 0002324 269.1840  90.9053 14.98333657 52261,6950.182,96.107,573.662,570.431,0.0
56491.0,STARLINK-5842,PAYLOAD,2024-04-12 06:10:17,14.98334585,0.000231,70.0005,60.4112,268.6957,91.3937,4.5513e-05,4.5e-06,0.0,0 STARLINK-5842,1 56491U 23064AV  24103.25714126  .00000450  00000-0  45513-4 0  9999,2 56491  70.0005  60.4112 0002310 268.6957  91.3937 14.98334585 51910,6950.179,96.107,573.649,570.438,0.0
56491.0,STARLINK-5842,PAYLOAD,2024-04-12 22:11:38,14.98327998,0.0002231,70.0007,58.7272,267.5322,92.5582,-8.2416e-08,-9.4e-07,0.0,0 STARLINK-5842,1 56491U 23064AV  24103.92474635 -.00000094  00000-0 -82416-7 0  9993,2 56491  70.0007  58.7272 0002231 267.5322  92.5582 14.98327998 52016,6950.199,96.107,573.615,570.513,0.0
56491.0,STARLINK-5842,PAYLOAD,2024-04-13 04:36:10,14.98326986,0.0002247,70.0008,58.054,266.7659,93.3243,-1.1911e-05,-2.35e-06,0.0,0 STARLINK-5842,1 56491U 23064AV  24104.19178765 -.00000235  00000-0 -11911-4 0  9994,2 56491  70.0008  58.0540 0002247 266.7659  93.3243 14.98326986 52412,6950.202,96.107,573.629,570.506,0.0
56491.0,STARLINK-5842,PAYLOAD,2024-04-13 07:48:26,14.98328325,0.0002239,70.0009,57.7174,266.1027,93.9876,2.6451e-06,-6.1e-07,0.0,0 STARLINK-5842,1 56491U 23064AV  24104.32530647 -.00000061  00000-0  26451-5 0  9992,2 56491  70.0009  57.7174 0002239 266.1027  93.9876 14.98328325 52075,6950.198,96.107,573.619,570.507,0.0
56491.0,STARLINK-5842,PAYLOAD,2024-04-14 04:38:11,14.98331629,0.0002171,70.0018,55.5312,250.5707,109.5218,-4.5912e-06,-1.48e-06,0.0,0 STARLINK-5842,1 56491U 23064AV  24105.19318361 -.00000148  00000-0 -45912-5 0  9995,2 56491  70.0018  55.5312 0002171 250.5707 109.5218 14.98331629 52561,6950.188,96.107,573.562,570.544,0.0
56491.0,STARLINK-5842,PAYLOAD,2024-04-14 22:15:39,14.98328935,0.0002314,70.0015,53.6786,263.5719,96.5176,2.1617e-05,1.65e-06,0.0,0 STARLINK-5842,1 56491U 23064AV  24105.92754457  .00000165  00000-0  21617-4 0  9998,2 56491  70.0015  53.6786 0002314 263.5719  96.5176 14.98328935 52315,6950.196,96.107,573.669,570.453,0.0
56491.0,STARLINK-5842,PAYLOAD,2024-04-15 04:40:11,14.98332085,0.0002251,70.0016,53.0054,261.3646,98.7258,5.9992e-05,6.23e-06,0.0,0 STARLINK-5842,1 56491U 23064AV  24106.19458144  .00000623  00000-0  59992-4 0  9998,2 56491  70.0016  53.0054 0002251 261.3646  98.7258 14.98332085 52713,6950.186,96.107,573.616,570.487,0.0
56491.0,STARLINK-5842,PAYLOAD,2024-04-15 06:16:19,14.98333343,0.0002236,70.0017,52.8374,260.1276,99.9631,7.2547e-05,7.73e-06,0.0,0 STARLINK-5842,1 56491U 23064AV  24106.26134019  .00000773  00000-0  72547-4 0  9995,2 56491  70.0017  52.8374 0002236 260.1276  99.9631 14.98333343 52362,6950.183,96.107,573.602,570.493,0.0
56491.0,STARLINK-5842,PAYLOAD,2024-04-15 20:41:32,14.98331366,0.0002165,70.0021,51.323,254.0486,106.0434,5.6151e-07,-8.6e-07,0.0,0 STARLINK-5842,1 56491U 23064AV  24106.86218292 -.00000086  00000-0  56151-6 0  9990,2 56491  70.0021  51.3230 0002165 254.0486 106.0434 14.98331366 52452,6950.189,96.107,573.558,570.549,0.0
56491.0,STARLINK-5842,PAYLOAD,2024-04-16 04:42:12,14.98331797,0.0002319,70.0016,50.4803,269.863,90.2263,8.7762e-06,1.2e-07,0.0,0 STARLINK-5842,1 56491U 23064AV  24107.19598328  .00000012  00000-0  87762-5 0  9997,2 56491  70.0016  50.4803 0002319 269.8630  90.2263 14.98331797 52865,6950.187,96.107,573.664,570.441,0.0
56491.0,STARLINK-5842,PAYLOAD,2024-04-16 06:18:20,14.98334424,0.0002354,70.0017,50.3122,272.0567,88.0323,3.2752e-05,2.98e-06,0.0,0 STARLINK-5842,1 56491U 23064AV  24107.26274087  .00000298  00000-0  32752-4 0  9992,2 56491  70.0017  50.3122 0002354 272.0567  88.0323 14.98334424 52517,6950.179,96.107,573.68,570.408,0.0
56491.0,STARLINK-5842,PAYLOAD,2024-04-16 20:43:32,14.98339728,0.0002396,70.0016,48.7971,264.5904,95.4982,5.7403e-05,5.92e-06,0.0,0 STARLINK-5842,1 56491U 23064AV  24107.86357452  .00000592  00000-0  57403-4 0  9993,2 56491  70.0016  48.7971 0002396 264.5904  95.4982 14.98339728 52960,6950.163,96.106,573.693,570.363,0.0
56491.0,STARLINK-5842,PAYLOAD,2024-04-16 22:19:40,14.98338722,0.0002407,70.0016,48.6287,265.6253,94.4631,8.1352e-05,8.78e-06,0.0,0 STARLINK-5842,1 56491U 23064AV  24107.93033401  .00000878  00000-0  81352-4 0  9993,2 56491  70.0016  48.6287 0002407 265.6253  94.4631 14.98338722 52616,6950.166,96.106,573.704,570.358,0.0
56491.0,STARLINK-5842,PAYLOAD,2024-04-17 04:44:12,14.98347375,0.0002282,70.002,47.9579,254.9508,105.1399,0.00013451,1.513e-05,0.0,0 STARLINK-5842,1 56491U 23064AV  24108.19736505  .00001513  00000-0  13451-3 0  9998,2 56491  70.0020  47.9579 0002282 254.9508 105.1399 14.98347375 53012,6950.139,96.106,573.59,570.418,0.0
56491.0,STARLINK-5842,PAYLOAD,2024-04-17 06:20:20,14.98348714,0.0002253,70.0021,47.7897,253.5364,106.5548,0.00015786,1.792e-05,0.0,0 STARLINK-5842,1 56491U 23064AV  24108.26412300  .00001792  00000-0  15786-3 0  9992,2 56491  70.0021  47.7897 0002253 253.5364 106.5548 14.98348714 52666,6950.135,96.106,573.566,570.434,0.0
56491.0,STARLINK-5842,PAYLOAD,2024-04-17 20:45:35,14.98313272,0.0002813,70.0016,46.2725,261.5831,98.5009,-0.00016332,-2.04e-05,0.0,0 STARLINK-5842,1 56491U 23064AV  24108.86499429 -.00002040  00000-0 -16332-3 0  9992,2 56491  70.0016  46.2725 0002813 261.5831  98.5009 14.98313272 53118,6950.245,96.108,574.065,570.155,0.0
56491.0,STARLINK-5842,PAYLOAD,2024-04-18 04:46:15,14.9831549,0.0002805,70.0012,45.4323,253.7108,106.3742,-0.00013462,-1.698e-05,0.0,0 STARLINK-5842,1 56491U 23064AV  24109.19879497 -.00001698  00000-0 -13462-3 0  9995,2 56491  70.0012  45.4323 0002805 253.7108 106.3742 14.98315490 52801,6950.238,96.108,574.052,570.153,0.0
56491.0,STARLINK-5842,PAYLOAD,2024-04-18 20:47:35,14.98329093,0.0003085,70.0005,43.7469,270.3234,89.7572,-0.00012414,-1.574e-05,0.0,0 STARLINK-5842,1 56491U 23064AV  24109.86638881 -.00001574  00000-0 -12414-3 0  9998,2 56491  70.0005  43.7469 0003085 270.3234  89.7572 14.98329093 53261,6950.196,96.107,574.205,569.917,0.0
56491.0,STARLINK-5842,PAYLOAD,2024-04-19 04:48:15,14.98334235,0.0002585,70.0049,42.9114,208.3897,151.7121,4.6547e-06,-3.7e-07,0.0,0 STARLINK-5842,1 56491U 23064AV  24110.20018301 -.00000037  00000-0  46547-5 0  9995,2 56491  70.0049  42.9114 0002585 208.3897 151.7121 14.98334235 53317,6950.18,96.107,573.841,570.248,0.0
